{
    "links": {
        "self": "http://www.neowsapp.com/rest/v1/neo/54016787?api_key=iIulBulltgU6a56xZRHN4H3l9WmuAYTsLGpBGhQ2"
    },
    "id": "54016787",
    "neo_reference_id": "54016787",
    "name": "(2020 HR7)",
    "designation": "2020 HR7",
    "nasa_jpl_url": "http://ssd.jpl.nasa.gov/sbdb.cgi?sstr=54016787",
    "absolute_magnitude_h": 25.378,
    "estimated_diameter": {
        "kilometers": {
            "estimated_diameter_min": 0.0223334068,
            "estimated_diameter_max": 0.0499390158
        },
        "meters": {
            "estimated_diameter_min": 22.3334067997,
            "estimated_diameter_max": 49.9390157732
        },
        "miles": {
            "estimated_diameter_min": 0.0138773313,
            "estimated_diameter_max": 0.0310306562
        },
        "feet": {
            "estimated_diameter_min": 73.2723343646,
            "estimated_diameter_max": 163.8419205094
        }
    },
    "is_potentially_hazardous_asteroid": false,
    "close_approach_data": [
        {
            "close_approach_date": "2020-04-24",
            "close_approach_date_full": "2020-Apr-24 10:55",
            "epoch_date_close_approach": 1587725700000,
            "relative_velocity": {
                "kilometers_per_second": "15.3281139335",
                "kilometers_per_hour": "55181.2101604765",
                "miles_per_hour": "34287.4580577694"
            },
            "miss_distance": {
                "astronomical": "0.0227567327",
                "lunar": "8.8523690203",
                "kilometers": "3404358.740079349",
                "miles": "2115370.4300550562"
            },
            "orbiting_body": "Earth"
        }
    ],
    "orbital_data": {
        "orbit_id": "3",
        "orbit_determination_date": "2020-05-01 06:00:34",
        "first_observation_date": "2020-04-26",
        "last_observation_date": "2020-05-01",
        "data_arc_in_days": 5,
        "observations_used": 31,
        "orbit_uncertainty": "8",
        "minimum_orbit_intersection": ".0215755",
        "jupiter_tisserand_invariant": "4.311",
        "epoch_osculation": "2458966.5",
        "eccentricity": ".3743016385969933",
        "semi_major_axis": "1.529547158438073",
        "inclination": "25.27201768323526",
        "ascending_node_longitude": "215.8403643043681",
        "orbital_period": "690.9438159341223",
        "perihelion_distance": ".9570351507233276",
        "perihelion_argument": "317.7922402516905",
        "aphelion_distance": "2.102059166152819",
        "perihelion_time": "2458929.036007728375",
        "mean_anomaly": "19.51973070277962",
        "mean_motion": ".5210264448395092",
        "equinox": "J2000",
        "orbit_class": {
            "orbit_class_type": "APO",
            "orbit_class_description": "Near-Earth asteroid orbits which cross the Earth’s orbit similar to that of 1862 Apollo",
            "orbit_class_range": "a (semi-major axis) > 1.0 AU; q (perihelion) < 1.017 AU"
        }
    },
    "is_sentry_object": false
}